LEGION 1                
1 59625U 24081A   24150.81288595  .00007384  00000+0  38285-3 0  9990
2 59625  97.5761 221.9071 0004885  84.6343 275.5447 15.16450040  4092
